LEMUR-2-ANDIS           
1 42838U 17042P   26068.55941107  .00023598  00000+0  79875-3 0  9998
2 42838  97.3659 249.7950 0009101   4.3248 355.8070 15.30557934473198
STARLINK-34520          
1 64486U 25133Q   26068.54766910  .00025128  00000+0  85787-3 0  9997
2 64486  53.1580 117.6698 0001260  79.6260 280.4883 15.30192336 41167
